EUTELSAT 7A             
1 28187U 04008A   25354.45266895  .00000122  00000+0  00000+0 0  9995
2 28187   5.3763  74.1646 0000842 196.1092 202.7633  1.00270468 79560
EUTELSAT 174A           
1 28924U 05052A   25354.65704883  .00000029  00000+0  00000+0 0  9996
2 28924   3.7661  78.7618 0005816 193.4597 227.8150  1.00269762 50547
EUTELSAT HOTBIRD 13B    
1 29270U 06032A   25354.27250644  .00000179  00000+0  00000+0 0  9995
2 29270   1.1990  84.3104 0003487 180.6102 315.3816  1.00273726 45512
EUTELSAT HOTBIRD 13C    
1 33459U 08065A   25354.75531117 -.00000261  00000+0  00000+0 0  9990
2 33459   2.4909  81.3334 0003433 183.1029  46.7542  1.00271516 45559
EUTELSAT 36B            
1 36101U 09065A   25354.77524463  .00000136  00000+0  00000+0 0  9996
2 36101   0.0511  36.0403 0005627 232.7695 150.3656  1.00270522 58918
EUTELSAT KA-SAT 9A      
1 37258U 10069A   25354.26773973  .00000086  00000+0  00000+0 0  9996
2 37258   0.0495 338.2800 0002025 203.9398  12.2819  1.00270278 42211
EUTELSAT 7 WEST A       
1 37816U 11051A   25354.76380455 -.00000037  00000+0  00000+0 0  9999
2 37816   0.0618   0.1991 0005138 229.8529 127.2079  1.00272135 52080
EUTELSAT 16A            
1 37836U 11057A   25354.76848457  .00000127  00000+0  00000+0 0  9997
2 37836   0.0595 338.5773 0005859 292.5457 111.1332  1.00269411  5534
